{"fetched_at":"2026-03-29T16:36:15Z","count":15609,"tles":[{"name":"STARLINK-31379","line1":"1 58984U 24031V   26087.85607468  .00000378  00000+0  24879-4 0  9992","line2":"2 58984  53.1598 207.9476 0001195  72.9090 287.2042 15.30190858119449","category":"Starlink"}]}