{
  "norad_id": 58984,
  "name": "STARLINK-31379",
  "history": [
    {
      "epoch": "2026-03-28T20:32:44.852352",
      "apogee_km": 476.06134475359613,
      "perigee_km": 474.42338708514035,
      "latitude_deg": 35.58246035182529,
      "longitude_deg": 160.58316927985288,
      "semi_major_axis_km": 6853.379365919368,
      "eccentricity": 0.0001195,
      "inclination_deg": 53.1598,
      "raan_deg": 207.9476,
      "arg_perigee_deg": 72.909,
      "mean_anomaly_deg": 287.2042,
      "mean_motion_rev_day": 15.30190858
    }
  ]
}